{
  "type": "FeatureCollection",
  "features": [
    {
      "type": "Feature",
      "properties": {
        "norad_id": 29268,
        "name": "ARIRANG-2 (KOMPSAT-2)",
        "group": "resource",
        "lat": 28.94291481024634,
        "lon": -5.504655893051465,
        "alt_km": 687.0843020904422,
        "timestamp": "2025-12-07T09:35:09.448519+00:00",
        "meta_object_name": "ARIRANG-2 (KOMPSAT-2)",
        "meta_object_id": "2006-031A",
        "meta_epoch": "2025-12-06T22:02:34.237248",
        "meta_mean_motion": 14.64485813,
        "meta_eccentricity": 0.00137825,
        "meta_inclination": 97.8271,
        "meta_ra_of_asc_node": 169.6753,
        "meta_arg_of_pericenter": 328.4839,
        "meta_mean_anomaly": 168.0008,
        "meta_ephemeris_type": 0,
        "meta_classification_type": "U",
        "meta_norad_cat_id": 29268,
        "meta_element_set_no": 999,
        "meta_rev_at_epoch": 3333,
        "meta_bstar": 0.00014809661,
        "meta_mean_motion_dot": 7.4e-06,
        "meta_mean_motion_ddot": 0,
        "tle_line1": "1 29268U 06031A   25340.91845182  .00000740  00000+0  14810-3 0  9996",
        "tle_line2": "2 29268  97.8271 169.6753 0013782 328.4839 168.0008 14.64485813 33337"
      },
      "geometry": {
        "type": "Point",
        "coordinates": [
          -5.504655893051465,
          28.94291481024634
        ]
      }
    },
    {
      "type": "Feature",
      "properties": {
        "norad_id": 29709,
        "name": "LAPAN-TUBSAT",
        "group": "resource",
        "lat": 37.94283297847267,
        "lon": -34.94913569613477,
        "alt_km": 602.806932464835,
        "timestamp": "2025-12-07T09:35:09.448536+00:00",
        "meta_object_name": "LAPAN-TUBSAT",
        "meta_object_id": "2007-001A",
        "meta_epoch": "2025-12-06T22:05:55.820544",
        "meta_mean_motion": 14.85657024,
        "meta_eccentricity": 0.00136364,
        "meta_inclination": 98.1251,
        "meta_ra_of_asc_node": 330.9578,
        "meta_arg_of_pericenter": 91.5085,
        "meta_mean_anomaly": 268.7691,
        "meta_ephemeris_type": 0,
        "meta_classification_type": "U",
        "meta_norad_cat_id": 29709,
        "meta_element_set_no": 999,
        "meta_rev_at_epoch": 2260,
        "meta_bstar": 0.00014554118,
        "meta_mean_motion_dot": 1.206e-05,
        "meta_mean_motion_ddot": 0,
        "tle_line1": "1 29709U 07001A   25340.92078496  .00001206  00000+0  14554-3 0  9994",
        "tle_line2": "2 29709  98.1251 330.9578 0013636  91.5085 268.7691 14.85657024 22608"
      },
      "geometry": {
        "type": "Point",
        "coordinates": [
          -34.94913569613477,
          37.94283297847267
        ]
      }
    },
    {
      "type": "Feature",
      "properties": {
        "norad_id": 31113,
        "name": "HAIYANG-1B",
        "group": "resource",
        "lat": -71.91080666133698,
        "lon": 119.24515370024105,
        "alt_km": 805.4843176441354,
        "timestamp": "2025-12-07T09:35:09.448554+00:00",
        "meta_object_name": "HAIYANG-1B",
        "meta_object_id": "2007-010A",
        "meta_epoch": "2025-12-06T22:20:04.396416",
        "meta_mean_motion": 14.30962026,
        "meta_eccentricity": 0.00144887,
        "meta_inclination": 98.3308,
        "meta_ra_of_asc_node": 325.4489,
        "meta_arg_of_pericenter": 54.0992,
        "meta_mean_anomaly": 306.1534,
        "meta_ephemeris_type": 0,
        "meta_classification_type": "U",
        "meta_norad_cat_id": 31113,
        "meta_element_set_no": 999,
        "meta_rev_at_epoch": 97313,
        "meta_bstar": 0.00010616924,
        "meta_mean_motion_dot": 2.38e-06,
        "meta_mean_motion_ddot": 0,
        "tle_line1": "1 31113U 07010A   25340.93060644  .00000238  00000+0  10617-3 0  9993",
        "tle_line2": "2 31113  98.3308 325.4489 0014488  54.0992 306.1534 14.30962026973139"
      },
      "geometry": {
        "type": "Point",
        "coordinates": [
          119.24515370024105,
          -71.91080666133698
        ]
      }
    },
    {
      "type": "Feature",
      "properties": {
        "norad_id": 31598,
        "name": "COSMO-SKYMED 1",
        "group": "resource",
        "lat": 18.20627905192495,
        "lon": -10.623968282173086,
        "alt_km": 580.5050721557309,
        "timestamp": "2025-12-07T09:35:09.448573+00:00",
        "meta_object_name": "COSMO-SKYMED 1",
        "meta_object_id": "2007-023A",
        "meta_epoch": "2025-12-06T23:13:58.048608",
        "meta_mean_motion": 14.95700421,
        "meta_eccentricity": 0.0001129,
        "meta_inclination": 97.8834,
        "meta_ra_of_asc_node": 166.33,
        "meta_arg_of_pericenter": 78.5383,
        "meta_mean_anomaly": 281.5964,
        "meta_ephemeris_type": 0,
        "meta_classification_type": "U",
        "meta_norad_cat_id": 31598,
        "meta_element_set_no": 999,
        "meta_rev_at_epoch": 104,
        "meta_bstar": 0.00051668636,
        "meta_mean_motion_dot": 5.694e-05,
        "meta_mean_motion_ddot": 0,
        "tle_line1": "1 31598U 07023A   25340.96803297  .00005694  00000+0  51669-3 0  9999",
        "tle_line2": "2 31598  97.8834 166.3300 0001129  78.5383 281.5964 14.95700421  1046"
      },
      "geometry": {
        "type": "Point",
        "coordinates": [
          -10.623968282173086,
          18.20627905192495
        ]
      }
    },
    {
      "type": "Feature",
      "properties": {
        "norad_id": 31698,
        "name": "TERRASAR-X",
        "group": "resource",
        "lat": 82.28567299551862,
        "lon": -87.99913203121028,
        "alt_km": 499.7161734575884,
        "timestamp": "2025-12-07T09:35:09.448584+00:00",
        "meta_object_name": "TERRASAR-X",
        "meta_object_id": "2007-026A",
        "meta_epoch": "2025-12-06T14:13:48.566208",
        "meta_mean_motion": 15.19149934,
        "meta_eccentricity": 0.00017836,
        "meta_inclination": 97.4444,
        "meta_ra_of_asc_node": 346.0634,
        "meta_arg_of_pericenter": 82.9925,
        "meta_mean_anomaly": 277.1512,
        "meta_ephemeris_type": 0,
        "meta_classification_type": "U",
        "meta_norad_cat_id": 31698,
        "meta_element_set_no": 999,
        "meta_rev_at_epoch": 2398,
        "meta_bstar": 0.00013540591,
        "meta_mean_motion_dot": 2.777e-05,
        "meta_mean_motion_ddot": 0,
        "tle_line1": "1 31698U 07026A   25340.59292322  .00002777  00000+0  13541-3 0  9999",
        "tle_line2": "2 31698  97.4444 346.0634 0001783  82.9925 277.1512 15.19149934 23984"
      },
      "geometry": {
        "type": "Point",
        "coordinates": [
          -87.99913203121028,
          82.28567299551862
        ]
      }
    },
    {
      "type": "Feature",
      "properties": {
        "norad_id": 32060,
        "name": "WORLDVIEW-1 (WV-1)",
        "group": "resource",
        "lat": -15.662001727333434,
        "lon": 101.04049116479149,
        "alt_km": 497.2033994383992,
        "timestamp": "2025-12-07T09:35:09.448595+00:00",
        "meta_object_name": "WORLDVIEW-1 (WV-1)",
        "meta_object_id": "2007-041A",
        "meta_epoch": "2025-12-06T21:03:11.227392",
        "meta_mean_motion": 15.24543159,
        "meta_eccentricity": 7.066e-05,
        "meta_inclination": 97.3846,
        "meta_ra_of_asc_node": 98.4419,
        "meta_arg_of_pericenter": 100.8,
        "meta_mean_anomaly": 259.3317,
        "meta_ephemeris_type": 0,
        "meta_classification_type": "U",
        "meta_norad_cat_id": 32060,
        "meta_element_set_no": 999,
        "meta_rev_at_epoch": 1358,
        "meta_bstar": 0.00053350668,
        "meta_mean_motion_dot": 0.00013073,
        "meta_mean_motion_ddot": 0,
        "tle_line1": "1 32060U 07041A   25340.87721328  .00013073  00000+0  53351-3 0  9998",
        "tle_line2": "2 32060  97.3846  98.4419 0000706 100.8000 259.3317 15.24543159 13583"
      },
      "geometry": {
        "type": "Point",
        "coordinates": [
          101.04049116479149,
          -15.662001727333434
        ]
      }
    },
    {
      "type": "Feature",
      "properties": {
        "norad_id": 32289,
        "name": "YAOGAN-3",
        "group": "resource",
        "lat": 55.08411276806349,
        "lon": -160.5471590754008,
        "alt_km": 592.5887935914707,
        "timestamp": "2025-12-07T09:35:09.448606+00:00",
        "meta_object_name": "YAOGAN-3",
        "meta_object_id": "2007-055A",
        "meta_epoch": "2025-12-06T21:44:51.432576",
        "meta_mean_motion": 14.8981713,
        "meta_eccentricity": 0.00014948,
        "meta_inclination": 97.8368,
        "meta_ra_of_asc_node": 7.584,
        "meta_arg_of_pericenter": 76.9579,
        "meta_mean_anomaly": 283.1806,
        "meta_ephemeris_type": 0,
        "meta_classification_type": "U",
        "meta_norad_cat_id": 32289,
        "meta_element_set_no": 999,
        "meta_rev_at_epoch": 97722,
        "meta_bstar": 0.00045243479,
        "meta_mean_motion_dot": 4.288e-05,
        "meta_mean_motion_ddot": 0,
        "tle_line1": "1 32289U 07055A   25340.90615084  .00004288  00000+0  45243-3 0  9990",
        "tle_line2": "2 32289  97.8368   7.5840 0001494  76.9579 283.1806 14.89817130977229"
      },
      "geometry": {
        "type": "Point",
        "coordinates": [
          -160.5471590754008,
          55.08411276806349
        ]
      }
    }
  ]
}